NORAD_CAT_ID,OBJECT_NAME,OBJECT_TYPE,EPOCH,MEAN_MOTION,ECCENTRICITY,INCLINATION,RA_OF_ASC_NODE,ARG_OF_PERICENTER,MEAN_ANOMALY,BSTAR,MEAN_MOTION_DOT,MEAN_MOTION_DDOT,TLE_LINE0,TLE_LINE1,TLE_LINE2,SEMIMAJOR_AXIS,PERIOD,APOGEE,PERIGEE,DECAYED
52690.0,STARLINK-4035,PAYLOAD,2024-07-08 10:57:17,15.08838645,0.0001328,53.2184,359.0773,82.6216,277.4927,0.00013716,1.896e-05,0.0,0 STARLINK-4035,1 52690U 22053AL  24190.45645001  .00001896  00000-0  13716-3 0  9990,2 52690  53.2184 359.0773 0001328  82.6216 277.4927 15.08838645118770,6917.885,95.438,540.668,538.831,0.0
52690.0,STARLINK-4035,PAYLOAD,2024-07-08 18:54:12,15.08843878,0.0001153,53.2187,357.5888,84.7926,275.3198,0.00011504,1.544e-05,0.0,0 STARLINK-4035,1 52690U 22053AL  24190.78764772  .00001544  00000-0  11504-3 0  9996,2 52690  53.2187 357.5888 0001153  84.7926 275.3198 15.08843878119198,6917.869,95.437,540.531,538.936,0.0
52690.0,STARLINK-4035,PAYLOAD,2024-07-09 10:48:04,15.08834112,0.0001042,53.2178,354.6152,89.8733,270.2378,6.4796e-05,7.43e-06,0.0,0 STARLINK-4035,1 52690U 22053AL  24191.45005337  .00000743  00000-0  64796-4 0  9998,2 52690  53.2178 354.6152 0001042  89.8733 270.2378 15.08834112118924,6917.898,95.438,540.484,539.043,0.0
52690.0,STARLINK-4035,PAYLOAD,2024-07-09 17:09:37,15.08839365,0.0001474,53.2194,353.4271,79.1719,280.9439,3.5519e-05,2.77e-06,0.0,0 STARLINK-4035,1 52690U 22053AL  24191.71501487  .00000277  00000-0  35519-4 0  9997,2 52690  53.2194 353.4271 0001474  79.1719 280.9439 15.08839365119333,6917.882,95.438,540.767,538.728,0.0
52690.0,STARLINK-4035,PAYLOAD,2024-07-10 04:17:18,15.08844441,0.0001227,53.2184,351.3442,83.1866,276.9266,5.4759e-05,5.84e-06,0.0,0 STARLINK-4035,1 52690U 22053AL  24192.17868989  .00000584  00000-0  54759-4 0  9999,2 52690  53.2184 351.3442 0001227  83.1866 276.9266 15.08844441119034,6917.867,95.437,540.581,538.883,0.0
52690.0,STARLINK-4035,PAYLOAD,2024-07-10 10:38:51,15.08838189,0.0001338,53.2186,350.1561,80.5896,279.5248,9.8176e-05,1.275e-05,0.0,0 STARLINK-4035,1 52690U 22053AL  24192.44365359  .00001275  00000-0  98176-4 0  9991,2 52690  53.2186 350.1561 0001338  80.5896 279.5248 15.08838189119448,6917.886,95.438,540.677,538.825,0.0
52690.0,STARLINK-4035,PAYLOAD,2024-07-10 20:11:09,15.08849371,0.0001302,53.219,348.3702,91.9842,268.1299,9.3584e-05,1.202e-05,0.0,0 STARLINK-4035,1 52690U 22053AL  24192.84108577  .00001202  00000-0  93584-4 0  9990,2 52690  53.2190 348.3702 0001302  91.9842 268.1299 15.08849371119509,6917.852,95.437,540.617,538.816,0.0
52690.0,STARLINK-4035,PAYLOAD,2024-07-11 13:40:24,15.08842616,0.0001679,53.2155,345.0967,95.2395,264.8789,7.8881e-05,9.68e-06,0.0,0 STARLINK-4035,1 52690U 22053AL  24193.56973156  .00000968  00000-0  78881-4 0  9994,2 52690  53.2155 345.0967 0001679  95.2395 264.8789 15.08842616119618,6917.872,95.437,540.899,538.576,0.0
52690.0,STARLINK-4035,PAYLOAD,2024-07-12 10:20:25,15.08841096,0.0001357,53.2176,341.2348,93.1937,266.921,2.7314e-05,1.47e-06,0.0,0 STARLINK-4035,1 52690U 22053AL  24194.43085556  .00000147  00000-0  27314-4 0  9993,2 52690  53.2176 341.2348 0001357  93.1937 266.9210 15.08841096119370,6917.877,95.437,540.681,538.803,0.0
52690.0,STARLINK-4035,PAYLOAD,2024-07-12 13:31:12,15.08837892,0.0001286,53.2189,340.64,103.2769,256.8366,9.5654e-05,1.235e-05,0.0,0 STARLINK-4035,1 52690U 22053AL  24194.56333545  .00001235  00000-0  95654-4 0  9992,2 52690  53.2189 340.6400 0001286 103.2769 256.8366 15.08837892119765,6917.887,95.438,540.641,538.862,0.0
52690.0,STARLINK-4035,PAYLOAD,2024-07-12 16:41:58,15.08844036,0.0001332,53.2184,340.046,92.2296,267.8849,6.575e-05,7.59e-06,0.0,0 STARLINK-4035,1 52690U 22053AL  24194.69581307  .00000759  00000-0  65750-4 0  9991,2 52690  53.2184 340.0460 0001332  92.2296 267.8849 15.08844036119782,6917.868,95.437,540.655,538.812,0.0
52690.0,STARLINK-4035,PAYLOAD,2024-07-13 13:21:59,15.08839654,0.0001306,53.2198,336.1802,98.8213,261.2927,7.0633e-05,8.36e-06,0.0,0 STARLINK-4035,1 52690U 22053AL  24195.55693656  .00000836  00000-0  70633-4 0  9990,2 52690  53.2198 336.1802 0001306  98.8213 261.2927 15.08839654119544,6917.881,95.438,540.65,538.843,0.0
52690.0,STARLINK-4035,PAYLOAD,2024-07-13 16:32:45,15.08845518,0.0001165,53.2188,335.5847,87.3587,272.7538,0.00011916,1.609e-05,0.0,0 STARLINK-4035,1 52690U 22053AL  24195.68941177  .00001609  00000-0  11916-3 0  9995,2 52690  53.2188 335.5847 0001165  87.3587 272.7538 15.08845518119939,6917.864,95.437,540.534,538.923,0.0
52690.0,STARLINK-4035,PAYLOAD,2024-07-14 14:48:09,15.08844508,0.0001345,53.2187,331.4224,96.8985,263.216,0.00011698,1.575e-05,0.0,0 STARLINK-4035,1 52690U 22053AL  24196.61677295  .00001575  00000-0  11698-3 0  9995,2 52690  53.2187 331.4224 0001345  96.8985 263.2160 15.08844508120070,6917.867,95.437,540.662,538.801,0.0
52690.0,STARLINK-4035,PAYLOAD,2024-07-14 17:58:54,15.0885329,0.0001387,53.2201,330.8289,96.4074,263.7076,0.00020197,2.929e-05,0.0,0 STARLINK-4035,1 52690U 22053AL  24196.74924555  .00002929  00000-0  20197-3 0  9991,2 52690  53.2201 330.8289 0001387  96.4074 263.7076 15.08853290119721,6917.84,95.437,540.664,538.745,0.0
52690.0,STARLINK-4035,PAYLOAD,2024-07-15 01:55:51,15.08840571,0.000167,53.22,329.3413,87.9558,272.1625,5.9683e-05,6.62e-06,0.0,0 STARLINK-4035,1 52690U 22053AL  24197.08045713  .00000662  00000-0  59683-4 0  9994,2 52690  53.2200 329.3413 0001670  87.9558 272.1625 15.08840571119776,6917.879,95.438,540.899,538.588,0.0
52690.0,STARLINK-4035,PAYLOAD,2024-07-15 14:38:56,15.08839923,0.0001581,53.2195,326.9604,87.8896,272.2278,3.1167e-05,2.08e-06,0.0,0 STARLINK-4035,1 52690U 22053AL  24197.61037852  .00000208  00000-0  31167-4 0  9991,2 52690  53.2195 326.9604 0001581  87.8896 272.2278 15.08839923120225,6917.881,95.438,540.839,538.652,0.0
52690.0,STARLINK-4035,PAYLOAD,2024-07-15 16:14:19,15.08841514,0.0001492,53.2192,326.6631,83.2143,276.9019,5.2798e-05,5.52e-06,0.0,0 STARLINK-4035,1 52690U 22053AL  24197.67661709  .00000552  00000-0  52798-4 0  9996,2 52690  53.2192 326.6631 0001492  83.2143 276.9019 15.08841514120239,6917.876,95.437,540.773,538.709,0.0
52690.0,STARLINK-4035,PAYLOAD,2024-07-16 12:54:20,15.08841644,0.0001352,53.2181,322.8001,87.8223,272.2924,5.8004e-05,6.35e-06,0.0,0 STARLINK-4035,1 52690U 22053AL  24198.53773551  .00000635  00000-0  58004-4 0  9999,2 52690  53.2181 322.8001 0001352  87.8223 272.2924 15.08841644119999,6917.875,95.437,540.676,538.805,0.0
52690.0,STARLINK-4035,PAYLOAD,2024-07-16 14:29:43,15.08845021,0.0001418,53.2181,322.5027,73.3877,286.7271,5.6471e-05,6.11e-06,0.0,0 STARLINK-4035,1 52690U 22053AL  24198.60397335  .00000611  00000-0  56471-4 0  9999,2 52690  53.2181 322.5027 0001418  73.3877 286.7271 15.08845021120374,6917.865,95.437,540.711,538.749,0.0
52690.0,STARLINK-4035,PAYLOAD,2024-07-16 16:05:05,15.08864103,0.0001088,53.2185,322.1992,103.0721,257.0393,0.00010447,1.376e-05,0.0,0 STARLINK-4035,1 52690U 22053AL  24198.67019784  .00001376  00000-0  10447-3 0  9996,2 52690  53.2185 322.1992 0001088 103.0721 257.0393 15.08864103120016,6917.807,95.436,540.424,538.919,0.0
52690.0,STARLINK-4035,PAYLOAD,2024-07-17 12:45:07,15.08838696,0.0001509,53.2191,318.3397,72.8098,287.3059,0.00014981,2.097e-05,0.0,0 STARLINK-4035,1 52690U 22053AL  24199.53133738  .00002097  00000-0  14981-3 0  9996,2 52690  53.2191 318.3397 0001509  72.8098 287.3059 15.08838696120144,6917.884,95.438,540.793,538.705,0.0
52690.0,STARLINK-4035,PAYLOAD,2024-07-17 14:20:30,15.0884339,0.0001583,53.2181,318.0433,76.1988,283.9181,7.0004e-05,8.26e-06,0.0,0 STARLINK-4035,1 52690U 22053AL  24199.59757639  .00000826  00000-0  70004-4 0  9991,2 52690  53.2181 318.0433 0001583  76.1988 283.9181 15.08843390120525,6917.87,95.437,540.83,538.64,0.0
52690.0,STARLINK-4035,PAYLOAD,2024-07-18 14:11:17,15.08837593,0.0001411,53.2183,313.5806,93.3639,266.7514,0.00010309,1.353e-05,0.0,0 STARLINK-4035,1 52690U 22053AL  24200.59117957  .00001353  00000-0  10309-3 0  9994,2 52690  53.2183 313.5806 0001411  93.3639 266.7514 15.08837593120678,6917.888,95.438,540.729,538.777,0.0
52690.0,STARLINK-4035,PAYLOAD,2024-07-19 14:02:04,15.08844584,0.0001251,53.2176,309.1164,89.7773,270.3362,6.5703e-05,7.58e-06,0.0,0 STARLINK-4035,1 52690U 22053AL  24201.58477538  .00000758  00000-0  65703-4 0  9995,2 52690  53.2176 309.1164 0001251  89.7773 270.3362 15.08844584120825,6917.866,95.437,540.597,538.866,0.0
52690.0,STARLINK-4035,PAYLOAD,2024-07-20 13:52:51,15.08852289,0.0001293,53.2186,304.6612,99.6845,260.4293,0.00017234,2.457e-05,0.0,0 STARLINK-4035,1 52690U 22053AL  24202.57837134  .00002457  00000-0  17234-3 0  9990,2 52690  53.2186 304.6612 0001293  99.6845 260.4293 15.08852289120600,6917.843,95.437,540.602,538.813,0.0
52690.0,STARLINK-4035,PAYLOAD,2024-07-21 12:08:15,15.08841894,0.0001506,53.2198,300.503,104.2616,255.8544,9.6282e-05,1.245e-05,0.0,0 STARLINK-4035,1 52690U 22053AL  24203.50573893  .00001245  00000-0  96282-4 0  9998,2 52690  53.2198 300.5030 0001506 104.2616 255.8544 15.08841894120740,6917.875,95.437,540.781,538.698,0.0
52690.0,STARLINK-4035,PAYLOAD,2024-07-22 10:23:40,15.08833595,0.0001353,53.2187,296.3388,101.6467,258.4678,-6.9553e-05,-1.394e-05,0.0,0 STARLINK-4035,1 52690U 22053AL  24204.43311013 -.00001394  00000-0 -69553-4 0  9993,2 52690  53.2187 296.3388 0001353 101.6467 258.4678 15.08833595120882,6917.9,95.438,540.701,538.829,0.0
52690.0,STARLINK-4035,PAYLOAD,2024-07-22 16:45:12,15.08839733,0.0001571,53.2171,295.1405,114.0262,246.0894,-1.4241e-05,-5.15e-06,0.0,0 STARLINK-4035,1 52690U 22053AL  24204.69806348 -.00000515  00000-0 -14241-4 0  9999,2 52690  53.2171 295.1405 0001571 114.0262 246.0894 15.08839733120923,6917.881,95.438,540.833,538.659,0.0
52690.0,STARLINK-4035,PAYLOAD,2024-07-23 10:14:27,15.08837938,0.0001401,53.2168,291.8705,102.1204,257.9945,0.00010963,1.457e-05,0.0,0 STARLINK-4035,1 52690U 22053AL  24205.42670285  .00001457  00000-0  10963-3 0  9990,2 52690  53.2168 291.8705 0001401 102.1204 257.9945 15.08837938121408,6917.887,95.438,540.721,538.782,0.0
